{"type": "FeatureCollection", "features": [ {"type": "Feature", "properties": {"norad_id": 33492, "name": "GOSAT (IBUKI)", "group": "resource", "lat": 56.68161559340985, "lon": 76.6140227150218, "alt_km": 662.8554944999214, "timestamp": "2025-12-06T09:34:16.574607+00:00", "meta": {"OBJECT_NAME": "GOSAT (IBUKI)", "OBJECT_ID": "2009-002A", "EPOCH": "2025-12-05T21:51:19.479168", "MEAN_MOTION": 14.67550998, "ECCENTRICITY": 9.677e-05, "INCLINATION": 98.0771, "RA_OF_ASC_NODE": 88.609, "ARG_OF_PERICENTER": 86.5586, "MEAN_ANOMALY": 273.5729, "EPHEMERIS_TYPE": 0, "CLASSIFICATION_TYPE": "U", "NORAD_CAT_ID": 33492, "ELEMENT_SET_NO": 999, "REV_AT_EPOCH": 90311, "BSTAR": 0.00030575884, "MEAN_MOTION_DOT": 1.687e-05, "MEAN_MOTION_DDOT": 0}, "tle": {"line1": "1 33492U 09002A   25339.91064212  .00001687  00000+0  30576-3 0  9994", "line2": "2 33492  98.0771  88.6090 0000967  86.5586 273.5729 14.67550998903119"}}, "geometry": {"type": "Point", "coordinates": [76.6140227150218, 56.68161559340985]}}, {"type": "Feature", "properties": {"norad_id": 35681, "name": "DEIMOS-1", "group": "resource", "lat": -32.89023347132448, "lon": 146.32722691319375, "alt_km": 652.5719743811242, "timestamp": "2025-12-06T09:34:16.574618+00:00", "meta": {"OBJECT_NAME": "DEIMOS-1", "OBJECT_ID": "2009-041A", "EPOCH": "2025-12-05T22:19:27.791328", "MEAN_MOTION": 14.74936163, "ECCENTRICITY": 0.00026874, "INCLINATION": 97.7153, "RA_OF_ASC_NODE": 140.851, "ARG_OF_PERICENTER": 92.6109, "MEAN_ANOMALY": 267.5408, "EPHEMERIS_TYPE": 0, "CLASSIFICATION_TYPE": "U", "NORAD_CAT_ID": 35681, "ELEMENT_SET_NO": 999, "REV_AT_EPOCH": 87839, "BSTAR": 0.00019777151, "MEAN_MOTION_DOT": 1.281e-05, "MEAN_MOTION_DDOT": 0}, "tle": {"line1": "1 35681U 09041A   25339.93018277  .00001281  00000+0  19777-3 0  9991", "line2": "2 35681  97.7153 140.8510 0002687  92.6109 267.5408 14.74936163878397"}}, "geometry": {"type": "Point", "coordinates": [146.32722691319375, -32.89023347132448]}}, {"type": "Feature", "properties": {"norad_id": 35682, "name": "DUBAISAT-1", "group": "resource", "lat": -82.00678324548905, "lon": -156.06970765350854, "alt_km": 651.08644148041, "timestamp": "2025-12-06T09:34:16.574629+00:00", "meta": {"OBJECT_NAME": "DUBAISAT-1", "OBJECT_ID": "2009-041B", "EPOCH": "2025-12-05T22:34:48.066240", "MEAN_MOTION": 14.74573149, "ECCENTRICITY": 0.00099417, "INCLINATION": 97.9788, "RA_OF_ASC_NODE": 110.7211, "ARG_OF_PERICENTER": 337.8008, "MEAN_ANOMALY": 22.2769, "EPHEMERIS_TYPE": 0, "CLASSIFICATION_TYPE": "U", "NORAD_CAT_ID": 35682, "ELEMENT_SET_NO": 999, "REV_AT_EPOCH": 87661, "BSTAR": 0.00039438896, "MEAN_MOTION_DOT": 2.578e-05, "MEAN_MOTION_DDOT": 0}, "tle": {"line1": "1 35682U 09041B   25339.94083410  .00002578  00000+0  39439-3 0  9991", "line2": "2 35682  97.9788 110.7211 0009941 337.8008  22.2769 14.74573149876610"}}, "geometry": {"type": "Point", "coordinates": [-156.06970765350854, -82.00678324548905]}}, {"type": "Feature", "properties": {"norad_id": 35931, "name": "OCEANSAT-2", "group": "resource", "lat": -4.171225390086946, "lon": -17.753291264113958, "alt_km": 893.547469068274, "timestamp": "2025-12-06T09:34:16.574640+00:00", "meta": {"OBJECT_NAME": "OCEANSAT-2", "OBJECT_ID": "2009-051A", "EPOCH": "2025-12-05T23:17:49.570368", "MEAN_MOTION": 13.99626199, "ECCENTRICITY": 0.00164752, "INCLINATION": 98.2227, "RA_OF_ASC_NODE": 341.2578, "ARG_OF_PERICENTER": 62.6845, "MEAN_ANOMALY": 297.5996, "EPHEMERIS_TYPE": 0, "CLASSIFICATION_TYPE": "U", "NORAD_CAT_ID": 35931, "ELEMENT_SET_NO": 999, "REV_AT_EPOCH": 85230, "BSTAR": -6.9777187e-05, "MEAN_MOTION_DOT": -1.39e-06, "MEAN_MOTION_DDOT": 0}, "tle": {"line1": "1 35931U 09051A   25339.97071262 -.00000139  00000+0 -69777-4 0  9996", "line2": "2 35931  98.2227 341.2578 0016475  62.6845 297.5996 13.99626199852307"}}, "geometry": {"type": "Point", "coordinates": [-17.753291264113958, -4.171225390086946]}}, {"type": "Feature", "properties": {"norad_id": 35946, "name": "WORLDVIEW-2 (WV-2)", "group": "resource", "lat": -29.683001485548676, "lon": 56.44793537996718, "alt_km": 773.6110959858015, "timestamp": "2025-12-06T09:34:16.574650+00:00", "meta": {"OBJECT_NAME": "WORLDVIEW-2 (WV-2)", "OBJECT_ID": "2009-055A", "EPOCH": "2025-12-05T22:01:05.691936", "MEAN_MOTION": 14.37647874, "ECCENTRICITY": 0.00054161, "INCLINATION": 98.4768, "RA_OF_ASC_NODE": 51.097, "ARG_OF_PERICENTER": 83.29, "MEAN_ANOMALY": 276.8904, "EPHEMERIS_TYPE": 0, "CLASSIFICATION_TYPE": "U", "NORAD_CAT_ID": 35946, "ELEMENT_SET_NO": 999, "REV_AT_EPOCH": 84787, "BSTAR": 0.00014100366, "MEAN_MOTION_DOT": 3.8e-06, "MEAN_MOTION_DDOT": 0}, "tle": {"line1": "1 35946U 09055A   25339.91742699  .00000380  00000+0  14100-3 0  9994", "line2": "2 35946  98.4768  51.0970 0005416  83.2900 276.8904 14.37647874847872"}}, "geometry": {"type": "Point", "coordinates": [56.44793537996718, -29.683001485548676]}}, {"type": "Feature", "properties": {"norad_id": 36036, "name": "SMOS", "group": "resource", "lat": -41.290684132475924, "lon": 173.03150305454412, "alt_km": 766.3650067751705, "timestamp": "2025-12-06T09:34:16.574661+00:00", "meta": {"OBJECT_NAME": "SMOS", "OBJECT_ID": "2009-059A", "EPOCH": "2025-12-05T18:45:13.642560", "MEAN_MOTION": 14.39731513, "ECCENTRICITY": 0.00010871, "INCLINATION": 98.4383, "RA_OF_ASC_NODE": 164.9325, "ARG_OF_PERICENTER": 84.2281, "MEAN_ANOMALY": 275.9031, "EPHEMERIS_TYPE": 0, "CLASSIFICATION_TYPE": "U", "NORAD_CAT_ID": 36036, "ELEMENT_SET_NO": 999, "REV_AT_EPOCH": 84562, "BSTAR": 0.00025059512, "MEAN_MOTION_DOT": 7.41e-06, "MEAN_MOTION_DDOT": 0}, "tle": {"line1": "1 36036U 09059A   25339.78140790  .00000741  00000+0  25060-3 0  9996", "line2": "2 36036  98.4383 164.9325 0001087  84.2281 275.9031 14.39731513845625"}}, "geometry": {"type": "Point", "coordinates": [173.03150305454412, -41.290684132475924]}}, {"type": "Feature", "properties": {"norad_id": 36110, "name": "YAOGAN-7", "group": "resource", "lat": -2.4157355789655566, "lon": -137.48073743526646, "alt_km": 630.2544121397978, "timestamp": "2025-12-06T09:34:16.574671+00:00", "meta": {"OBJECT_NAME": "YAOGAN-7", "OBJECT_ID": "2009-069A", "EPOCH": "2025-12-05T15:42:21.819744", "MEAN_MOTION": 14.77716154, "ECCENTRICITY": 0.00236733, "INCLINATION": 98.0303, "RA_OF_ASC_NODE": 221.4365, "ARG_OF_PERICENTER": 305.3017, "MEAN_ANOMALY": 54.5979, "EPHEMERIS_TYPE": 0, "CLASSIFICATION_TYPE": "U", "NORAD_CAT_ID": 36110, "ELEMENT_SET_NO": 999, "REV_AT_EPOCH": 86104, "BSTAR": 0.00019504417, "MEAN_MOTION_DOT": 1.351e-05, "MEAN_MOTION_DDOT": 0}, "tle": {"line1": "1 36110U 09069A   25339.65441921  .00001351  00000+0  19504-3 0  9990", "line2": "2 36110  98.0303 221.4365 0023673 305.3017  54.5979 14.77716154861040"}}, "geometry": {"type": "Point", "coordinates": [-137.48073743526646, -2.4157355789655566]}}, {"type": "Feature", "properties": {"norad_id": 36605, "name": "TANDEM-X", "group": "resource", "lat": 18.912416304716682, "lon": -16.695298020012764, "alt_km": 508.3600199999464, "timestamp": "2025-12-06T09:34:16.574681+00:00", "meta": {"OBJECT_NAME": "TANDEM-X", "OBJECT_ID": "2010-030A", "EPOCH": "2025-12-05T14:31:03.216576", "MEAN_MOTION": 15.19154888, "ECCENTRICITY": 0.0001924, "INCLINATION": 97.4449, "RA_OF_ASC_NODE": 345.0902, "ARG_OF_PERICENTER": 96.7979, "MEAN_ANOMALY": 263.3475, "EPHEMERIS_TYPE": 0, "CLASSIFICATION_TYPE": "U", "NORAD_CAT_ID": 36605, "ELEMENT_SET_NO": 999, "REV_AT_EPOCH": 85725, "BSTAR": 0.00014316692, "MEAN_MOTION_DOT": 2.941e-05, "MEAN_MOTION_DDOT": 0}, "tle": {"line1": "1 36605U 10030A   25339.60489834  .00002941  00000+0  14317-3 0  9992", "line2": "2 36605  97.4449 345.0902 0001924  96.7979 263.3475 15.19154888857252"}}, "geometry": {"type": "Point", "coordinates": [-16.695298020012764, 18.912416304716682]}}, {"type": "Feature", "properties": {"norad_id": 36795, "name": "CARTOSAT-2B", "group": "resource", "lat": -78.32848320766455, "lon": 168.15380527461912, "alt_km": 649.2885270004408, "timestamp": "2025-12-06T09:34:16.574691+00:00", "meta": {"OBJECT_NAME": "CARTOSAT-2B", "OBJECT_ID": "2010-035A", "EPOCH": "2025-12-05T22:39:01.270080", "MEAN_MOTION": 14.78772864, "ECCENTRICITY": 0.00129056, "INCLINATION": 97.7861, "RA_OF_ASC_NODE": 29.1947, "ARG_OF_PERICENTER": 97.6006, "MEAN_ANOMALY": 262.6672, "EPHEMERIS_TYPE": 0, "CLASSIFICATION_TYPE": "U", "NORAD_CAT_ID": 36795, "ELEMENT_SET_NO": 999, "REV_AT_EPOCH": 83129, "BSTAR": 0.00020008394, "MEAN_MOTION_DOT": 1.422e-05, "MEAN_MOTION_DDOT": 0}, "tle": {"line1": "1 36795U 10035A   25339.94376470  .00001422  00000+0  20008-3 0  9992", "line2": "2 36795  97.7861  29.1947 0012905  97.6006 262.6672 14.78772864831295"}}, "geometry": {"type": "Point", "coordinates": [168.15380527461912, -78.32848320766455]}}, {"type": "Feature", "properties": {"norad_id": 36834, "name": "YAOGAN-10", "group": "resource", "lat": -28.485621530286494, "lon": 175.93806813605224, "alt_km": 621.428485526154, "timestamp": "2025-12-06T09:34:16.574701+00:00", "meta": {"OBJECT_NAME": "YAOGAN-10", "OBJECT_ID": "2010-038A", "EPOCH": "2025-12-05T23:13:10.973568", "MEAN_MOTION": 14.84568009, "ECCENTRICITY": 0.00015127, "INCLINATION": 97.9141, "RA_OF_ASC_NODE": 359.839, "ARG_OF_PERICENTER": 84.5773, "MEAN_ANOMALY": 340.3506, "EPHEMERIS_TYPE": 0, "CLASSIFICATION_TYPE": "U", "NORAD_CAT_ID": 36834, "ELEMENT_SET_NO": 999, "REV_AT_EPOCH": 82853, "BSTAR": 0.00040829676, "MEAN_MOTION_DOT": 3.393e-05, "MEAN_MOTION_DDOT": 0}, "tle": {"line1": "1 36834U 10038A   25339.96748812  .00003393  00000+0  40830-3 0  9998", "line2": "2 36834  97.9141 359.8390 0001512  84.5773 340.3506 14.84568009828539"}}, "geometry": {"type": "Point", "coordinates": [175.93806813605224, -28.485621530286494]}}]}